start=new Date('2023-02-10T00:00:00.000Z').valueOf();
sats=[{"APOAPSIS":"540.784","TLE_LINE1":"1 52477U 22049AC  23040.30327069  .00014755  00000-0  94313-3 0  9996","MEAN_MOTION":"15.08843196","DECAY_DATE":null,"LAUNCH_DATE":"2022-05-06","ECCENTRICITY":"0.00015160","RA_OF_ASC_NODE":"56.6913","GP_ID":"224911155","OBJECT_TYPE":"PAYLOAD","CLASSIFICATION_TYPE":"U","OBJECT_NAME":"STARLINK-3860","PERIOD":"95.437","INCLINATION":"53.2169","SITE":"AFETR","ARG_OF_PERICENTER":"104.5050","EPOCH":"2023-02-09T07:16:42.587616","ELEMENT_SET_NO":"999","RCS_SIZE":"LARGE","BSTAR":"0.00094313000000","REV_AT_EPOCH":"4388","NORAD_CAT_ID":"52477","EPHEMERIS_TYPE":"0","MEAN_ANOMALY":"255.6110","COUNTRY_CODE":"US","SEMIMAJOR_AXIS":"6917.871","MEAN_ELEMENT_THEORY":"SGP4","FILE":"3782313","TLE_LINE2":"2 52477  53.2169  56.6913 0001516 104.5050 255.6110 15.08843196 43889","TIME_SYSTEM":"UTC","MEAN_MOTION_DOT":"0.00014755","OBJECT_ID":"2022-049AC","REF_FRAME":"TEME","MEAN_MOTION_DDOT":"0.0000000000000","PERIAPSIS":"538.687","CENTER_NAME":"EARTH"},{"OBJECT_ID":"2022-049AD","MEAN_MOTION_DDOT":"0.0000000000000","REF_FRAME":"TEME","PERIAPSIS":"538.734","CENTER_NAME":"EARTH","COUNTRY_CODE":"US","SEMIMAJOR_AXIS":"6917.861","FILE":"3782313","MEAN_ELEMENT_THEORY":"SGP4","TLE_LINE2":"2 52478  53.2144  66.5262 0001433 103.7840 256.3312 15.08846484 43757","TIME_SYSTEM":"UTC","MEAN_MOTION_DOT":"-0.00000308","ELEMENT_SET_NO":"999","RCS_SIZE":"LARGE","BSTAR":"-0.00000128130000","REV_AT_EPOCH":"4375","EPHEMERIS_TYPE":"0","NORAD_CAT_ID":"52478","MEAN_ANOMALY":"256.3312","ARG_OF_PERICENTER":"103.7840","EPOCH":"2023-02-09T08:08:22.068384","CLASSIFICATION_TYPE":"U","OBJECT_NAME":"STARLINK-3825","INCLINATION":"53.2144","PERIOD":"95.437","SITE":"AFETR","GP_ID":"224911405","OBJECT_TYPE":"PAYLOAD","LAUNCH_DATE":"2022-05-06","ECCENTRICITY":"0.00014330","RA_OF_ASC_NODE":"66.5262","APOAPSIS":"540.717","TLE_LINE1":"1 52478U 22049AD  23040.33914431 -.00000308  00000-0 -12813-5 0  9993","MEAN_MOTION":"15.08846484","DECAY_DATE":null},{"RCS_SIZE":"LARGE","BSTAR":"-0.00008306000000","ELEMENT_SET_NO":"999","MEAN_ANOMALY":"269.6949","NORAD_CAT_ID":"52479","EPHEMERIS_TYPE":"0","REV_AT_EPOCH":"4395","ARG_OF_PERICENTER":"90.4203","EPOCH":"2023-02-09T18:03:13.190400","REF_FRAME":"TEME","MEAN_MOTION_DDOT":"0.0000000000000","OBJECT_ID":"2022-049AE","CENTER_NAME":"EARTH","PERIAPSIS":"538.801","MEAN_ELEMENT_THEORY":"SGP4","FILE":"3783241","SEMIMAJOR_AXIS":"6917.899","COUNTRY_CODE":"US","MEAN_MOTION_DOT":"-0.00001609","TLE_LINE2":"2 52479  53.2198  54.6711 0001391  90.4203 269.6949 15.08834069 43953","TIME_SYSTEM":"UTC","LAUNCH_DATE":"2022-05-06","RA_OF_ASC_NODE":"54.6711","ECCENTRICITY":"0.00013910","TLE_LINE1":"1 52479U 22049AE  23040.75223600 -.00001609  00000-0 -83060-4 0  9997","APOAPSIS":"540.726","DECAY_DATE":null,"MEAN_MOTION":"15.08834069","SITE":"AFETR","PERIOD":"95.438","INCLINATION":"53.2198","CLASSIFICATION_TYPE":"U","OBJECT_NAME":"STARLINK-3878","OBJECT_TYPE":"PAYLOAD","GP_ID":"224960350"},{"ELEMENT_SET_NO":"999","RCS_SIZE":"LARGE","BSTAR":"0.00089856000000","REV_AT_EPOCH":"4258","NORAD_CAT_ID":"52480","EPHEMERIS_TYPE":"0","MEAN_ANOMALY":"248.8163","ARG_OF_PERICENTER":"111.2993","EPOCH":"2023-02-09T19:10:46.631712","OBJECT_ID":"2022-049AF","MEAN_MOTION_DDOT":"0.0000000000000","REF_FRAME":"TEME","PERIAPSIS":"538.684","CENTER_NAME":"EARTH","COUNTRY_CODE":"US","SEMIMAJOR_AXIS":"6917.885","MEAN_ELEMENT_THEORY":"SGP4","FILE":"3783241","TIME_SYSTEM":"UTC","TLE_LINE2":"2 52480  53.2155  64.4678 0001541 111.2993 248.8163 15.08838551 42589","MEAN_MOTION_DOT":"0.00014041","LAUNCH_DATE":"2022-05-06","ECCENTRICITY":"0.00015410","RA_OF_ASC_NODE":"64.4678","APOAPSIS":"540.816","TLE_LINE1":"1 52480U 22049AF  23040.79915083  .00014041  00000-0  89856-3 0  9996","MEAN_MOTION":"15.08838551","DECAY_DATE":null,"CLASSIFICATION_TYPE":"U","OBJECT_NAME":"STARLINK-3839","INCLINATION":"53.2155","PERIOD":"95.438","SITE":"AFETR","GP_ID":"224958609","OBJECT_TYPE":"PAYLOAD"},{"BSTAR":"0.00000645990000","RCS_SIZE":"LARGE","ELEMENT_SET_NO":"999","MEAN_ANOMALY":"258.8455","REV_AT_EPOCH":"4375","NORAD_CAT_ID":"52481","EPHEMERIS_TYPE":"0","ARG_OF_PERICENTER":"101.2704","EPOCH":"2023-02-09T08:13:40.044576","OBJECT_ID":"2022-049AG","REF_FRAME":"TEME","MEAN_MOTION_DDOT":"0.0000000000000","PERIAPSIS":"538.710","CENTER_NAME":"EARTH","MEAN_ELEMENT_THEORY":"SGP4","FILE":"3782313","COUNTRY_CODE":"US","SEMIMAJOR_AXIS":"6917.873","TLE_LINE2":"2 52481  53.2136  66.5189 0001486 101.2704 258.8455 15.08842549 43753","TIME_SYSTEM":"UTC","MEAN_MOTION_DOT":"-0.00000185","LAUNCH_DATE":"2022-05-06","ECCENTRICITY":"0.00014860","RA_OF_ASC_NODE":"66.5189","APOAPSIS":"540.766","TLE_LINE1":"1 52481U 22049AG  23040.34282459 -.00000185  00000-0  64599-5 0  9996","MEAN_MOTION":"15.08842549","DECAY_DATE":null,"INCLINATION":"53.2136","PERIOD":"95.437","SITE":"AFETR","CLASSIFICATION_TYPE":"U","OBJECT_NAME":"STARLINK-3842","GP_ID":"224911655","OBJECT_TYPE":"PAYLOAD"},{"REV_AT_EPOCH":"4271","EPHEMERIS_TYPE":"0","NORAD_CAT_ID":"52482","MEAN_ANOMALY":"267.9235","BSTAR":"-0.00003882500000","RCS_SIZE":"LARGE","ELEMENT_SET_NO":"999","EPOCH":"2023-02-09T17:52:37.092864","ARG_OF_PERICENTER":"92.1947","PERIAPSIS":"538.626","CENTER_NAME":"EARTH","OBJECT_ID":"2022-049AH","REF_FRAME":"TEME","MEAN_MOTION_DDOT":"0.0000000000000","TIME_SYSTEM":"UTC","TLE_LINE2":"2 52482  53.2184  54.7011 0001657  92.1947 267.9235 15.08831101 42711","MEAN_MOTION_DOT":"-0.00000906","COUNTRY_CODE":"US","SEMIMAJOR_AXIS":"6917.908","MEAN_ELEMENT_THEORY":"SGP4","FILE":"3783241","ECCENTRICITY":"0.00016570","RA_OF_ASC_NODE":"54.7011","LAUNCH_DATE":"2022-05-06","MEAN_MOTION":"15.08831101","DECAY_DATE":null,"APOAPSIS":"540.919","TLE_LINE1":"1 52482U 22049AH  23040.74487376 -.00000906  00000-0 -38825-4 0  9990","CLASSIFICATION_TYPE":"U","OBJECT_NAME":"STARLINK-3813","PERIOD":"95.438","INCLINATION":"53.2184","SITE":"AFETR","GP_ID":"224960103","OBJECT_TYPE":"PAYLOAD"},{"MEAN_MOTION":"15.08844125","DECAY_DATE":null,"APOAPSIS":"541.170","TLE_LINE1":"1 52483U 22049AJ  23040.75591742  .00021028  00000-0  13352-2 0  9997","ECCENTRICITY":"0.00020780","RA_OF_ASC_NODE":"54.6517","LAUNCH_DATE":"2022-05-06","GP_ID":"224959852","OBJECT_TYPE":"PAYLOAD","INCLINATION":"53.2187","PERIOD":"95.437","SITE":"AFETR","CLASSIFICATION_TYPE":"U","OBJECT_NAME":"STARLINK-3875","EPOCH":"2023-02-09T18:08:31.265088","ARG_OF_PERICENTER":"81.8108","MEAN_ANOMALY":"278.3119","REV_AT_EPOCH":"4395","EPHEMERIS_TYPE":"0","NORAD_CAT_ID":"52483","BSTAR":"0.00133520000000","RCS_SIZE":"LARGE","ELEMENT_SET_NO":"999","TIME_SYSTEM":"UTC","TLE_LINE2":"2 52483  53.2187  54.6517 0002078  81.8108 278.3119 15.08844125 43951","MEAN_MOTION_DOT":"0.00021028","MEAN_ELEMENT_THEORY":"SGP4","FILE":"3783241","COUNTRY_CODE":"US","SEMIMAJOR_AXIS":"6917.868","PERIAPSIS":"538.295","CENTER_NAME":"EARTH","OBJECT_ID":"2022-049AJ","REF_FRAME":"TEME","MEAN_MOTION_DDOT":"0.0000000000000"},{"GP_ID":"224959109","OBJECT_TYPE":"PAYLOAD","PERIOD":"95.438","INCLINATION":"53.2161","SITE":"AFETR","CLASSIFICATION_TYPE":"U","OBJECT_NAME":"STARLINK-3887","MEAN_MOTION":"15.08838417","DECAY_DATE":null,"APOAPSIS":"541.108","TLE_LINE1":"1 52484U 22049AK  23040.79547380  .00001582  00000-0  11750-3 0  9995","ECCENTRICITY":"0.00019630","RA_OF_ASC_NODE":"64.4884","LAUNCH_DATE":"2022-05-06","TIME_SYSTEM":"UTC","TLE_LINE2":"2 52484  53.2161  64.4884 0001963  74.7373 285.3836 15.08838417 42586","MEAN_MOTION_DOT":"0.00001582","MEAN_ELEMENT_THEORY":"SGP4","FILE":"3783241","COUNTRY_CODE":"US","SEMIMAJOR_AXIS":"6917.885","PERIAPSIS":"538.392","CENTER_NAME":"EARTH","OBJECT_ID":"2022-049AK","MEAN_MOTION_DDOT":"0.0000000000000","REF_FRAME":"TEME","EPOCH":"2023-02-09T19:05:28.936320","ARG_OF_PERICENTER":"74.7373","MEAN_ANOMALY":"285.3836","REV_AT_EPOCH":"4258","NORAD_CAT_ID":"52484","EPHEMERIS_TYPE":"0","BSTAR":"0.00011750000000","RCS_SIZE":"LARGE","ELEMENT_SET_NO":"999"},{"ARG_OF_PERICENTER":"88.3762","EPOCH":"2023-02-09T17:57:55.200384","ELEMENT_SET_NO":"999","RCS_SIZE":"LARGE","BSTAR":"0.00092642000000","MEAN_ANOMALY":"271.7463","EPHEMERIS_TYPE":"0","NORAD_CAT_ID":"52485","REV_AT_EPOCH":"4271","MEAN_ELEMENT_THEORY":"SGP4","FILE":"3783241","SEMIMAJOR_AXIS":"6917.887","COUNTRY_CODE":"US","MEAN_MOTION_DOT":"0.00014486","TIME_SYSTEM":"UTC","TLE_LINE2":"2 52485  53.2165  54.6856 0002038  88.3762 271.7463 15.08837745 42711","REF_FRAME":"TEME","MEAN_MOTION_DDOT":"0.0000000000000","OBJECT_ID":"2022-049AL","CENTER_NAME":"EARTH","PERIAPSIS":"538.342","TLE_LINE1":"1 52485U 22049AL  23040.74855556  .00014486  00000-0  92642-3 0  9994","APOAPSIS":"541.162","DECAY_DATE":null,"MEAN_MOTION":"15.08837745","LAUNCH_DATE":"2022-05-06","ECCENTRICITY":"0.00020380","RA_OF_ASC_NODE":"54.6856","OBJECT_TYPE":"PAYLOAD","GP_ID":"224959359","SITE":"AFETR","PERIOD":"95.438","INCLINATION":"53.2165","CLASSIFICATION_TYPE":"U","OBJECT_NAME":"STARLINK-3913"},{"PERIAPSIS":"538.773","CENTER_NAME":"EARTH","OBJECT_ID":"2022-049AM","REF_FRAME":"TEME","MEAN_MOTION_DDOT":"0.0000000000000","TLE_LINE2":"2 52486  53.2171  64.5183 0001366  85.5864 274.5284 15.08849003 42584","TIME_SYSTEM":"UTC","MEAN_MOTION_DOT":"-0.00001957","COUNTRY_CODE":"US","SEMIMAJOR_AXIS":"6917.853","FILE":"3783241","MEAN_ELEMENT_THEORY":"SGP4","REV_AT_EPOCH":"4258","EPHEMERIS_TYPE":"0","NORAD_CAT_ID":"52486","MEAN_ANOMALY":"274.5284","ELEMENT_SET_NO":"999","RCS_SIZE":"LARGE","BSTAR":"-0.00010486000000","EPOCH":"2023-02-09T18:54:52.805088","ARG_OF_PERICENTER":"85.5864","CLASSIFICATION_TYPE":"U","OBJECT_NAME":"STARLINK-3918","INCLINATION":"53.2171","PERIOD":"95.437","SITE":"AFETR","GP_ID":"224959605","OBJECT_TYPE":"PAYLOAD","ECCENTRICITY":"0.00013660","RA_OF_ASC_NODE":"64.5183","LAUNCH_DATE":"2022-05-06","MEAN_MOTION":"15.08849003","DECAY_DATE":null,"APOAPSIS":"540.663","TLE_LINE1":"1 52486U 22049AM  23040.78811117 -.00001957  00000-0 -10486-3 0  9991"}];
